[{"OBJECT_NAME":"ONEWEB-0560","OBJECT_ID":"2023-004F","EPOCH":"2026-03-09T19:52:45.069024","MEAN_MOTION":13.18685993,"ECCENTRICITY":0.0001943,"INCLINATION":87.9239,"RA_OF_ASC_NODE":355.1998,"ARG_OF_PERICENTER":83.3274,"MEAN_ANOMALY":276.8079,"EPHEMERIS_TYPE":0,"CLASSIFICATION_TYPE":"U","NORAD_CAT_ID":55145,"ELEMENT_SET_NO":999,"REV_AT_EPOCH":15661,"BSTAR":1.8602187e-5,"MEAN_MOTION_DOT":2.0e-7,"MEAN_MOTION_DDOT":0},{"OBJECT_NAME":"DELTA 1 DEB","OBJECT_ID":"1973-086EM","EPOCH":"2026-03-09T11:30:31.760064","MEAN_MOTION":12.94084043,"ECCENTRICITY":0.01921368,"INCLINATION":102.6113,"RA_OF_ASC_NODE":272.351,"ARG_OF_PERICENTER":58.869,"MEAN_ANOMALY":2.5921,"EPHEMERIS_TYPE":0,"CLASSIFICATION_TYPE":"U","NORAD_CAT_ID":7175,"ELEMENT_SET_NO":999,"REV_AT_EPOCH":45605,"BSTAR":0.0026700319,"MEAN_MOTION_DOT":7.48e-6,"MEAN_MOTION_DDOT":0}]
